OBJECT_NAME,OBJECT_ID,EPOCH,MEAN_MOTION,ECCENTRICITY,INCLINATION,RA_OF_ASC_NODE,ARG_OF_PERICENTER,MEAN_ANOMALY,EPHEMERIS_TYPE,CLASSIFICATION_TYPE,NORAD_CAT_ID,ELEMENT_SET_NO,REV_AT_EPOCH,BSTAR,MEAN_MOTION_DOT,MEAN_MOTION_DDOT
STARLINK-30162,2023-105S,2026-03-09T12:00:01.999296,15.15634531,.0001626,42.9995,249.1935,235.8169,21.6405,0,U,57446,999,572,.46588E-2,.91095E-3,0
OBJECT B,2024-094B,2026-03-09T12:10:50.064096,15.16273454,.0005004,97.3970,142.0303,80.1398,280.0400,0,U,59806,999,10005,.43893E-3,.8436E-4,0
